STARLINK-30432          
1 57864U 23144A   25354.30180053  .00000162  00000+0  27091-4 0  9994
2 57864  43.0055 359.2818 0001436 274.0465  86.0214 15.02536106125623
STARLINK-30427          
1 57865U 23144B   25354.29846186  .00003925  00000+0  30538-3 0  9998
2 57865  43.0017 359.2454 0001064 271.4621  88.6100 15.02549618125624
STARLINK-30393          
1 57866U 23144C   25354.37482320 -.00000026  00000+0  13120-4 0  9993
2 57866  43.0040 358.1078 0001212 273.4889  86.5815 15.02531406125642
STARLINK-30439          
1 57867U 23144D   25354.29514486  .00000213  00000+0  30842-4 0  9991
2 57867  43.0033 359.2303 0001230 274.8881  85.1821 15.02532532125671
STARLINK-30442          
1 57868U 23144E   25354.29181231  .00001232  00000+0  10622-3 0  9995
2 57868  43.0018 359.1613 0000750 278.8314  81.2443 15.02532914125625
STARLINK-30441          
1 57869U 23144F   25354.30512479  .00005487  00000+0  42100-3 0  9992
2 57869  43.0047 359.2541 0001405 287.4999  72.5689 15.02529291125621
STARLINK-30460          
1 57870U 23144G   25354.28848258  .00000320  00000+0  38731-4 0  9995
2 57870  43.0046 359.1805 0001234 273.9927  86.0774 15.02536000125671
STARLINK-30444          
1 57871U 23144H   25354.28182180  .00000302  00000+0  37408-4 0  9991
2 57871  43.0039 359.1287 0001342 277.6186  82.4504 15.02536319125399
STARLINK-30446          
1 57872U 23144J   25354.37510822  .00000657  00000+0  63707-4 0  9994
2 57872  43.0054 345.3252 0001294 271.8465  88.2229 15.02539115125562
STARLINK-30445          
1 57873U 23144K   25354.41811004 -.00000011  00000+0  14264-4 0  9995
2 57873  43.0039 358.4369 0001035 270.0527  90.0196 15.02533780125648
STARLINK-30447          
1 57874U 23144L   25354.38542593  .00000383  00000+0  43458-4 0  9994
2 57874  43.0052 332.9139 0001331 278.2156  81.8536 15.02535344125973
STARLINK-30434          
1 57875U 23144M   25354.00925079  .00000833  00000+0  76715-4 0  9990
2 57875  43.0045   0.5257 0001409 280.5085  79.5598 15.02533257125634
STARLINK-30429          
1 57876U 23144N   25354.40478893 -.00000244  00000+0 -29729-5 0  9994
2 57876  43.0056 358.3325 0001082 278.9007  81.1713 15.02536310125685
STARLINK-30284          
1 57877U 23144P   25354.32920014  .00000477  00000+0  50403-4 0  9991
2 57877  43.0047 320.3804 0001219 265.6870  94.3833 15.02533748126110
STARLINK-30433          
1 57878U 23144Q   25354.06907209  .00000322  00000+0  38901-4 0  9992
2 57878  43.0041   0.1131 0001124 271.5152  88.5562 15.02533597125637
STARLINK-30358          
1 57879U 23144R   25354.06685189  .00000783  00000+0  73041-4 0  9998
2 57879  43.0067   0.0943 0001418 269.5696  90.4984 15.02528601125632
