[{"OBJECT_NAME":"STARLINK-30432","OBJECT_ID":"2023-144A","EPOCH":"2025-12-20T07:14:35.565792","MEAN_MOTION":15.02536106,"ECCENTRICITY":0.0001436,"INCLINATION":43.0055,"RA_OF_ASC_NODE":359.2818,"ARG_OF_PERICENTER":274.0465,"MEAN_ANOMALY":86.0214,"EPHEMERIS_TYPE":0,"CLASSIFICATION_TYPE":"U","NORAD_CAT_ID":57864,"ELEMENT_SET_NO":999,"REV_AT_EPOCH":12562,"BSTAR":2.7091157e-5,"MEAN_MOTION_DOT":1.62e-6,"MEAN_MOTION_DDOT":0},{"OBJECT_NAME":"STARLINK-30427","OBJECT_ID":"2023-144B","EPOCH":"2025-12-20T07:09:47.104704","MEAN_MOTION":15.02549618,"ECCENTRICITY":0.0001064,"INCLINATION":43.0017,"RA_OF_ASC_NODE":359.2454,"ARG_OF_PERICENTER":271.4621,"MEAN_ANOMALY":88.61,"EPHEMERIS_TYPE":0,"CLASSIFICATION_TYPE":"U","NORAD_CAT_ID":57865,"ELEMENT_SET_NO":999,"REV_AT_EPOCH":12562,"BSTAR":0.00030537733,"MEAN_MOTION_DOT":3.925e-5,"MEAN_MOTION_DDOT":0},{"OBJECT_NAME":"STARLINK-30393","OBJECT_ID":"2023-144C","EPOCH":"2025-12-20T08:59:44.724480","MEAN_MOTION":15.02531406,"ECCENTRICITY":0.00012123,"INCLINATION":43.004,"RA_OF_ASC_NODE":358.1078,"ARG_OF_PERICENTER":273.4889,"MEAN_ANOMALY":86.5815,"EPHEMERIS_TYPE":0,"CLASSIFICATION_TYPE":"U","NORAD_CAT_ID":57866,"ELEMENT_SET_NO":999,"REV_AT_EPOCH":12564,"BSTAR":1.3119794e-5,"MEAN_MOTION_DOT":-2.6e-7,"MEAN_MOTION_DDOT":0},{"OBJECT_NAME":"STARLINK-30439","OBJECT_ID":"2023-144D","EPOCH":"2025-12-20T07:05:00.515904","MEAN_MOTION":15.02532532,"ECCENTRICITY":0.00012307,"INCLINATION":43.0033,"RA_OF_ASC_NODE":359.2303,"ARG_OF_PERICENTER":274.8881,"MEAN_ANOMALY":85.1821,"EPHEMERIS_TYPE":0,"CLASSIFICATION_TYPE":"U","NORAD_CAT_ID":57867,"ELEMENT_SET_NO":999,"REV_AT_EPOCH":12567,"BSTAR":3.0842414e-5,"MEAN_MOTION_DOT":2.13e-6,"MEAN_MOTION_DDOT":0},{"OBJECT_NAME":"STARLINK-30442","OBJECT_ID":"2023-144E","EPOCH":"2025-12-20T07:00:12.583584","MEAN_MOTION":15.02532914,"ECCENTRICITY":7.503e-5,"INCLINATION":43.0018,"RA_OF_ASC_NODE":359.1613,"ARG_OF_PERICENTER":278.8314,"MEAN_ANOMALY":81.2443,"EPHEMERIS_TYPE":0,"CLASSIFICATION_TYPE":"U","NORAD_CAT_ID":57868,"ELEMENT_SET_NO":999,"REV_AT_EPOCH":12562,"BSTAR":0.000106225,"MEAN_MOTION_DOT":1.232e-5,"MEAN_MOTION_DDOT":0},{"OBJECT_NAME":"STARLINK-30441","OBJECT_ID":"2023-144F","EPOCH":"2025-12-20T07:19:22.781856","MEAN_MOTION":15.02529291,"ECCENTRICITY":0.00014055,"INCLINATION":43.0047,"RA_OF_ASC_NODE":359.2541,"ARG_OF_PERICENTER":287.4999,"MEAN_ANOMALY":72.5689,"EPHEMERIS_TYPE":0,"CLASSIFICATION_TYPE":"U","NORAD_CAT_ID":57869,"ELEMENT_SET_NO":999,"REV_AT_EPOCH":12562,"BSTAR":0.00042100214,"MEAN_MOTION_DOT":5.487e-5,"MEAN_MOTION_DDOT":0},{"OBJECT_NAME":"STARLINK-30460","OBJECT_ID":"2023-144G","EPOCH":"2025-12-20T06:55:24.894912","MEAN_MOTION":15.02536,"ECCENTRICITY":0.00012341,"INCLINATION":43.0046,"RA_OF_ASC_NODE":359.1805,"ARG_OF_PERICENTER":273.9927,"MEAN_ANOMALY":86.0774,"EPHEMERIS_TYPE":0,"CLASSIFICATION_TYPE":"U","NORAD_CAT_ID":57870,"ELEMENT_SET_NO":999,"REV_AT_EPOCH":12567,"BSTAR":3.8730645e-5,"MEAN_MOTION_DOT":3.2e-6,"MEAN_MOTION_DDOT":0},{"OBJECT_NAME":"STARLINK-30444","OBJECT_ID":"2023-144H","EPOCH":"2025-12-20T06:45:49.403520","MEAN_MOTION":15.02536319,"ECCENTRICITY":0.00013421,"INCLINATION":43.0039,"RA_OF_ASC_NODE":359.1287,"ARG_OF_PERICENTER":277.6186,"MEAN_ANOMALY":82.4504,"EPHEMERIS_TYPE":0,"CLASSIFICATION_TYPE":"U","NORAD_CAT_ID":57871,"ELEMENT_SET_NO":999,"REV_AT_EPOCH":12539,"BSTAR":3.7408069e-5,"MEAN_MOTION_DOT":3.02e-6,"MEAN_MOTION_DDOT":0},{"OBJECT_NAME":"STARLINK-30446","OBJECT_ID":"2023-144J","EPOCH":"2025-12-20T09:00:09.350208","MEAN_MOTION":15.02539115,"ECCENTRICITY":0.00012949,"INCLINATION":43.0054,"RA_OF_ASC_NODE":345.3252,"ARG_OF_PERICENTER":271.8465,"MEAN_ANOMALY":88.2229,"EPHEMERIS_TYPE":0,"CLASSIFICATION_TYPE":"U","NORAD_CAT_ID":57872,"ELEMENT_SET_NO":999,"REV_AT_EPOCH":12556,"BSTAR":6.3707373e-5,"MEAN_MOTION_DOT":6.57e-6,"MEAN_MOTION_DDOT":0},{"OBJECT_NAME":"STARLINK-30445","OBJECT_ID":"2023-144K","EPOCH":"2025-12-20T10:02:04.707456","MEAN_MOTION":15.0253378,"ECCENTRICITY":0.00010354,"INCLINATION":43.0039,"RA_OF_ASC_NODE":358.4369,"ARG_OF_PERICENTER":270.0527,"MEAN_ANOMALY":90.0196,"EPHEMERIS_TYPE":0,"CLASSIFICATION_TYPE":"U","NORAD_CAT_ID":57873,"ELEMENT_SET_NO":999,"REV_AT_EPOCH":12564,"BSTAR":1.4264304e-5,"MEAN_MOTION_DOT":-1.1e-7,"MEAN_MOTION_DDOT":0},{"OBJECT_NAME":"STARLINK-30447","OBJECT_ID":"2023-144L","EPOCH":"2025-12-20T09:15:00.800352","MEAN_MOTION":15.02535344,"ECCENTRICITY":0.00013318,"INCLINATION":43.0052,"RA_OF_ASC_NODE":332.9139,"ARG_OF_PERICENTER":278.2156,"MEAN_ANOMALY":81.8536,"EPHEMERIS_TYPE":0,"CLASSIFICATION_TYPE":"U","NORAD_CAT_ID":57874,"ELEMENT_SET_NO":999,"REV_AT_EPOCH":12597,"BSTAR":4.3458215e-5,"MEAN_MOTION_DOT":3.83e-6,"MEAN_MOTION_DDOT":0},{"OBJECT_NAME":"STARLINK-30434","OBJECT_ID":"2023-144M","EPOCH":"2025-12-20T00:13:19.268256","MEAN_MOTION":15.02533257,"ECCENTRICITY":0.00014094,"INCLINATION":43.0045,"RA_OF_ASC_NODE":0.5257,"ARG_OF_PERICENTER":280.5085,"MEAN_ANOMALY":79.5598,"EPHEMERIS_TYPE":0,"CLASSIFICATION_TYPE":"U","NORAD_CAT_ID":57875,"ELEMENT_SET_NO":999,"REV_AT_EPOCH":12563,"BSTAR":7.6715127e-5,"MEAN_MOTION_DOT":8.33e-6,"MEAN_MOTION_DDOT":0},{"OBJECT_NAME":"STARLINK-30429","OBJECT_ID":"2023-144N","EPOCH":"2025-12-20T09:42:53.763552","MEAN_MOTION":15.0253631,"ECCENTRICITY":0.00010824,"INCLINATION":43.0056,"RA_OF_ASC_NODE":358.3325,"ARG_OF_PERICENTER":278.9007,"MEAN_ANOMALY":81.1713,"EPHEMERIS_TYPE":0,"CLASSIFICATION_TYPE":"U","NORAD_CAT_ID":57876,"ELEMENT_SET_NO":999,"REV_AT_EPOCH":12568,"BSTAR":-2.97294e-6,"MEAN_MOTION_DOT":-2.44e-6,"MEAN_MOTION_DDOT":0},{"OBJECT_NAME":"STARLINK-30284","OBJECT_ID":"2023-144P","EPOCH":"2025-12-20T07:54:02.892096","MEAN_MOTION":15.02533748,"ECCENTRICITY":0.00012192,"INCLINATION":43.0047,"RA_OF_ASC_NODE":320.3804,"ARG_OF_PERICENTER":265.687,"MEAN_ANOMALY":94.3833,"EPHEMERIS_TYPE":0,"CLASSIFICATION_TYPE":"U","NORAD_CAT_ID":57877,"ELEMENT_SET_NO":999,"REV_AT_EPOCH":12611,"BSTAR":5.0403291e-5,"MEAN_MOTION_DOT":4.77e-6,"MEAN_MOTION_DDOT":0},{"OBJECT_NAME":"STARLINK-30433","OBJECT_ID":"2023-144Q","EPOCH":"2025-12-20T01:39:27.828576","MEAN_MOTION":15.02533597,"ECCENTRICITY":0.00011249,"INCLINATION":43.0041,"RA_OF_ASC_NODE":0.1131,"ARG_OF_PERICENTER":271.5152,"MEAN_ANOMALY":88.5562,"EPHEMERIS_TYPE":0,"CLASSIFICATION_TYPE":"U","NORAD_CAT_ID":57878,"ELEMENT_SET_NO":999,"REV_AT_EPOCH":12563,"BSTAR":3.8901359e-5,"MEAN_MOTION_DOT":3.22e-6,"MEAN_MOTION_DDOT":0},{"OBJECT_NAME":"STARLINK-30358","OBJECT_ID":"2023-144R","EPOCH":"2025-12-20T01:36:16.003296","MEAN_MOTION":15.02528601,"ECCENTRICITY":0.00014182,"INCLINATION":43.0067,"RA_OF_ASC_NODE":0.0943,"ARG_OF_PERICENTER":269.5696,"MEAN_ANOMALY":90.4984,"EPHEMERIS_TYPE":0,"CLASSIFICATION_TYPE":"U","NORAD_CAT_ID":57879,"ELEMENT_SET_NO":999,"REV_AT_EPOCH":12563,"BSTAR":7.3041276e-5,"MEAN_MOTION_DOT":7.83e-6,"MEAN_MOTION_DDOT":0}]
